ONEWEB-0271             
1 48989U 21060Y   24203.49468016  .00000018  00000+0  13830-4 0  9993
2 48989  87.9114   7.2665 0001726  79.8468 280.2857 13.16594364148124
ONEWEB-0272             
1 48990U 21060Z   24203.51683963  .00000074  00000+0  16107-3 0  9999
2 48990  87.9115   7.2911 0001778  83.7189 276.4144 13.16592235148077
ONEWEB-0273             
1 48991U 21060AA  24203.53901309  .00000091  00000+0  20545-3 0  9999
2 48991  87.9115   7.2734 0001602  89.1657 270.9657 13.16594678148056
ONEWEB-0274             
1 48992U 21060AB  24203.48835199 -.00000011  00000+0 -61747-4 0  9991
2 48992  87.9121   7.2992 0002267  83.5565 276.5824 13.16594201148087
ONEWEB-0275             
1 48993U 21060AC  24203.47726851  .00000007  00000+0 -14400-4 0  9993
2 48993  87.9112   7.2814 0001664  86.9836 273.1485 13.16594388148014
ONEWEB-0276             
1 48994U 21060AD  24203.51051362  .00000089  00000+0  20027-3 0  9997
2 48994  87.9113   7.2709 0001574  84.7526 275.3784 13.16593946148038
ONEWEB-0277             
1 48995U 21060AE  24203.52318106  .00000128  00000+0  30225-3 0  9996
2 48995  87.9114   7.3065 0001646  74.0574 286.0738 13.16594811148020
ONEWEB-0278             
1 48996U 21060AF  24203.51367802  .00000094  00000+0  21264-3 0  9998
2 48996  87.9114   7.2672 0001619 101.2924 258.8389 13.16594087148154
ONEWEB-0279             
1 48997U 21060AG  24203.52158692  .00000094  00000+0  21133-3 0  9990
2 48997  87.9113   7.2632 0001722  77.9044 282.2279 13.16597163148086
ONEWEB-0280             
1 48998U 21060AH  24203.53585122  .00000045  00000+0  84554-4 0  9997
2 48998  87.9115   7.2622 0001517  92.5406 267.5899 13.16594265148023
ONEWEB-0281             
1 48999U 21060AJ  24203.46618203  .00000075  00000+0  16379-3 0  9999
2 48999  87.9114   7.2776 0002014  91.3196 268.8166 13.16593736148088
ONEWEB-0282             
1 49000U 21060AK  24203.49626711 -.00000001  00000+0 -36819-4 0  9992
2 49000  87.9114   7.2881 0001542  84.0721 276.0586 13.16594888148061
ONEWEB-0283             
1 49001U 21060AL  24203.48516505 -.00000316  00000+0 -86119-3 0  9997
2 49001  87.9111   7.2963 0001792  82.9836 277.1499 13.16593879148076
ONEWEB-0284             
1 49002U 21060AM  24203.47885280 -.00000021  00000+0 -88356-4 0  9995
2 49002  87.9107   7.2794 0001558  90.3190 269.8119 13.16594815148056
ONEWEB-0285             
1 49075U 21075A   24203.31993027  .00000478  00000+0  12945-2 0  9996
2 49075  87.8955 129.2423 0001946  76.6901 283.4444 13.12443345143930
ONEWEB-0286             
1 49076U 21075B   24203.29139323 -.00000318  00000+0 -91911-3 0  9991
2 49076  87.8951 129.2496 0002121  86.1782 273.9589 13.12444038143288
ONEWEB-0287             
1 49077U 21075C   24203.36396709  .00000084  00000+0  18371-3 0  9990
2 49077  87.9189 144.4124 0001839  86.9994 273.1348 13.17650606141994
ONEWEB-0288             
1 49078U 21075D   24203.35384436 -.00000203  00000+0 -59910-3 0  9993
2 49078  87.8954 129.2408 0001923  80.4971 279.6375 13.12441717143919
ONEWEB-0289             
1 49079U 21075E   24203.39304023  .00000099  00000+0  22305-3 0  9991
2 49079  87.9190 144.4345 0002027  76.6403 283.4955 13.17650440142573
ONEWEB-0290             
1 49080U 21075F   24203.37526512 -.00000827  00000+0 -21627-2 0  9996
2 49080  87.9191 144.3986 0001582  91.7434 268.3878 13.17651939141987
ONEWEB-0291             
1 49081U 21075G   24203.35911544  .00000075  00000+0  16071-3 0  9999
2 49081  87.9183 144.4210 0001901  85.3703 274.7645 13.17650531141972
ONEWEB-0293             
1 49082U 21075H   24203.38496184  .00000104  00000+0  23458-3 0  9991
2 49082  87.9188 144.4316 0001770  82.8470 277.2863 13.17648210142008
ONEWEB-0294             
1 49083U 21075J   24203.36032863 -.00000337  00000+0 -97078-3 0  9999
2 49083  87.8951 129.2389 0001365  88.5725 271.5560 13.12443142143300
ONEWEB-0295             
1 49084U 21075K   24203.38659220  .00000087  00000+0  19200-3 0  9995
2 49084  87.9190 144.4091 0001991  92.9165 267.2194 13.17651443141963
ONEWEB-0296             
1 49085U 21075L   24203.34086146  .00000099  00000+0  23961-3 0  9995
2 49085  87.8953 129.2444 0001690 100.4338 259.6981 13.12444197143306
ONEWEB-0297             
1 49086U 21075M   24203.29543912 -.00000210  00000+0 -62002-3 0  9995
2 49086  87.8961 129.2625 0002063  79.2652 280.8708 13.12442093143906
ONEWEB-0298             
1 49087U 21075N   24203.38982165  .00000058  00000+0  11555-3 0  9998
2 49087  87.9190 144.4269 0002204  84.4369 275.7013 13.17649634141999
ONEWEB-0299             
1 49088U 21075P   24203.31548768  .00000063  00000+0  12956-3 0  9991
2 49088  87.9186 144.4096 0002173  87.4991 272.6389 13.17647635141960
ONEWEB-0300             
1 49089U 21075Q   24203.28733260 -.00000326  00000+0 -94129-3 0  9997
2 49089  87.8951 129.2509 0002312  71.9242 288.2138 13.12444698143924
ONEWEB-0301             
1 49090U 21075R   24203.34735835 -.00000061  00000+0 -20418-3 0  9992
2 49090  87.8951 129.2426 0002227  72.6634 287.4738 13.12443127143295
ONEWEB-0302             
1 49091U 21075S   24203.33438267  .00000344  00000+0  92186-3 0  9994
2 49091  87.8952 129.2438 0001825  82.2613 277.8723 13.12442701143279
ONEWEB-0304             
1 49092U 21075T   24203.36557839  .00000083  00000+0  17938-3 0  9997
2 49092  87.9191 144.4165 0001976  88.1655 271.9702 13.17649847141949
ONEWEB-0305             
1 49093U 21075U   24203.35750089  .00000083  00000+0  18060-3 0  9996
2 49093  87.9185 144.4041 0002214  92.8012 267.3373 13.17648572141971
ONEWEB-0308             
1 49094U 21075V   24203.32789134  .00000469  00000+0  12685-2 0  9991
2 49094  87.8951 129.2440 0002034  75.9285 284.2069 13.12443561143282
ONEWEB-0309             
1 49095U 21075W   24203.36235201  .00000036  00000+0  59490-4 0  9994
2 49095  87.9189 144.4089 0001483  84.9856 275.1445 13.17650447141942
ONEWEB-0310             
1 49096U 21075X   24203.34248487 -.00000150  00000+0 -45277-3 0  9999
2 49096  87.8961 129.2519 0001833  77.1018 283.0315 13.12441524143914
ONEWEB-0311             
1 49097U 21075Y   24203.36880189  .00000031  00000+0  45881-4 0  9991
2 49097  87.9190 144.4086 0002278  91.3009 268.8383 13.17647735141999
ONEWEB-0312             
1 49098U 21075Z   24203.38335452  .00000125  00000+0  28986-3 0  9992
2 49098  87.9192 144.4376 0001895  94.8317 265.3031 13.17649136141975
ONEWEB-0313             
1 49099U 21075AA  24203.36073752  .00000056  00000+0  11171-3 0  9994
2 49099  87.9190 144.4445 0001991  87.9728 272.1632 13.17648644141962
ONEWEB-0314             
1 49100U 21075AB  24203.35426637  .00000087  00000+0  19138-3 0  9995
2 49100  87.9186 144.4023 0001953  93.3460 266.7895 13.17648548141934
ONEWEB-0315             
1 49101U 21075AC  24203.31654175  .00000393  00000+0  10571-2 0  9993
2 49101  87.8950 129.2395 0002084  75.8191 284.3169 13.12444592143893
ONEWEB-0316             
1 49102U 21075AD  24203.29610966  .00000033  00000+0  51200-4 0  9998
2 49102  87.9149 114.0019 0002054  81.9814 278.1551 13.18684522145496
ONEWEB-0317             
1 49103U 21075AE  24203.31005079  .00000235  00000+0  61755-3 0  9994
2 49103  87.8952 129.2507 0001734  64.3241 295.8066 13.12445175143916
ONEWEB-0318             
1 49104U 21075AF  24203.29294790  .00000013  00000+0  11312-5 0  9992
2 49104  87.9147 113.9952 0002138  84.2989 275.8387 13.18684522145459
ONEWEB-0319             
1 49105U 21075AG  24203.37042042  .00000062  00000+0  12531-3 0  9999
2 49105  87.9190 144.4338 0002325  93.2430 266.8967 13.17648593141978
ONEWEB-0323             
1 49106U 21075AH  24203.30031314 -.00000070  00000+0 -22946-3 0  9995
2 49106  87.8951 129.2397 0002043  82.9618 277.1742 13.12445479143273
ONEWEB-0329             
1 49107U 21075AJ  24203.37850499  .00000019  00000+0  16520-4 0  9999
2 49107  87.9191 144.4361 0002035  86.5177 273.6187 13.17650589141954
ONEWEB-0330             
1 49108U 21075AK  24203.38011507  .00000092  00000+0  20331-3 0  9995
2 49108  87.9191 144.4366 0001904  86.6902 273.4447 13.17648821141998
ONEWEB-0292             
1 49186U 21083A   24203.20578228 -.00000177  00000+0 -52006-3 0  9999
2 49186  87.8919  98.7866 0001980  78.2385 281.8966 13.13470167139564
ONEWEB-0303             
1 49187U 21083B   24203.28978800  .00000079  00000+0  16684-3 0  9999
2 49187  87.9146 113.9959 0002101  81.7319 278.4051 13.18684934138260
ONEWEB-0306             
1 49188U 21083C   24203.28030636 -.00000036  00000+0 -12333-3 0  9998
2 49188  87.9147 113.9847 0001796  74.4395 285.6935 13.18687178138309
ONEWEB-0307             
1 49189U 21083D   24203.27640145 -.00000267  00000+0 -76610-3 0  9994
2 49189  87.8922  98.7726 0001472  76.1616 283.9677 13.13471488139576
ONEWEB-0320             
1 49190U 21083E   24203.28663184  .00000084  00000+0  18135-3 0  9998
2 49190  87.9148 114.0082 0001918  77.5879 282.5468 13.18685205138264
ONEWEB-0321             
1 49191U 21083F   24203.60207842  .00000111  00000+0  24191-3 0  9990
2 49191  87.9183  52.8204 0001651  78.0334 282.0984 13.20771119145017
ONEWEB-0322             
1 49192U 21083G   24203.27243303 -.00000411  00000+0 -11618-2 0  9990
2 49192  87.8922  98.7626 0001564  63.2054 296.9235 13.13469758139564
ONEWEB-0324             
1 49193U 21083H   24203.27240495  .00000068  00000+0  13867-3 0  9995
2 49193  87.9148 113.9926 0001823  84.9854 275.1486 13.18684786138285
ONEWEB-0325             
1 49194U 21083J   24203.27715052  .00000085  00000+0  18337-3 0  9998
2 49194  87.9148 114.0060 0001937  75.4932 284.6415 13.18687939138296
ONEWEB-0326             
1 49195U 21083K   24203.29136815  .00000038  00000+0  62805-4 0  9993
2 49195  87.9146 114.0011 0002248  90.3455 269.7935 13.18684564138284
ONEWEB-0327             
1 49196U 21083L   24203.26532334  .00000059  00000+0  11630-3 0  9999
2 49196  87.9146 114.0188 0002259  84.0229 276.1161 13.18685074138304
